NORAD_CAT_ID,OBJECT_NAME,OBJECT_TYPE,EPOCH,MEAN_MOTION,ECCENTRICITY,INCLINATION,RA_OF_ASC_NODE,ARG_OF_PERICENTER,MEAN_ANOMALY,BSTAR,MEAN_MOTION_DOT,MEAN_MOTION_DDOT,TLE_LINE0,TLE_LINE1,TLE_LINE2,SEMIMAJOR_AXIS,PERIOD,APOGEE,PERIGEE,DECAYED
53588.0,STARLINK-4691,PAYLOAD,2022-11-09 14:00:01,15.08798147,0.0001431,53.2146,303.6716,47.5962,202.6862,-0.00053373,-8.762e-05,0.0,0 STARLINK-4691,1 53588U 22104A   22313.58334491 -.00008762  00000-0 -53373-3 0  9995,2 53588  53.2146 303.6716 0001431  47.5962 202.6862 15.08798147  1300,6918.0080000000025,95.44,540.863,538.883,0.0
53588.0,STARLINK-4691,PAYLOAD,2022-11-09 22:00:01,15.08781843,0.000131,53.2149,302.1738,56.5065,205.3807,0.0031802,0.00050608,0.0,0 STARLINK-4691,1 53588U 22104A   22313.91668981  .00050608  00000-0  31802-2 0  9992,2 53588  53.2149 302.1738 0001310  56.5065 205.3807 15.08781843 11373,6918.058000000001,95.441,540.8290000000002,539.0169999999998,0.0
53588.0,STARLINK-4691,PAYLOAD,2022-11-10 00:00:00,15.08802412,0.0001326,53.2151,301.8001,57.4426,297.2605,0.0015598,0.00024598,0.0,0 STARLINK-4691,1 53588U 22104A   22314.00001157  .00024598  00000-0  15598-2 0  9992,2 53588  53.2151 301.8001 0001326  57.4426 297.2605 15.08802412  1307,6917.995,95.44,540.778,538.943,0.0
53588.0,STARLINK-4691,PAYLOAD,2022-11-10 14:00:01,15.08836751,0.0001439,53.2146,299.1824,50.4934,234.4343,-0.0012017999999999,-0.00019362,0.0,0 STARLINK-4691,1 53588U 22104A   22314.58334491 -.00019362  00000-0 -12018-2 0  9994,2 53588  53.2146 299.1824 0001439  50.4934 234.4343 15.08836751  1300,6917.89,95.438,540.751,538.76,0.0
53588.0,STARLINK-4691,PAYLOAD,2022-11-10 16:00:00,15.0883351,0.0001408,53.2147,298.8077,53.7723,324.0521,-0.00075184,-0.00012231,0.0,0 STARLINK-4691,1 53588U 22104A   22314.66667824 -.00012231  00000-0 -75184-3 0  9994,2 53588  53.2147 298.8077 0001408  53.7723 324.0521 15.08833510 11490,6917.9,95.438,540.739,538.7909999999998,0.0
53588.0,STARLINK-4691,PAYLOAD,2022-11-10 22:00:00,15.08830042,0.0001374,53.2148,297.6848,60.4745,236.0358,0.00018955,2.729e-05,0.0,0 STARLINK-4691,1 53588U 22104A   22314.91667824  .00002729  00000-0  18955-3 0  9994,2 53588  53.2148 297.6848 0001374  60.4745 236.0358 15.08830042  1301,6917.911,95.438,540.726,538.825,0.0
53588.0,STARLINK-4691,PAYLOAD,2022-11-11 14:00:01,15.08843493,0.0001547,53.2143,294.6931,55.7637,263.8979,-0.001373,-0.00022075,0.0,0 STARLINK-4691,1 53588U 22104A   22315.58334491 -.00022075  00000-0 -13730-2 0  9992,2 53588  53.2143 294.6931 0001547  55.7637 263.8979 15.08843493  1306,6917.87,95.437,540.805,538.665,0.0
53588.0,STARLINK-4691,PAYLOAD,2022-11-11 22:00:00,15.08830826,0.0001493,53.2145,293.1957,64.5879,266.6672,0.002974,0.0004735,0.0,0 STARLINK-4691,1 53588U 22104A   22315.91667824  .00047350  00000-0  29740-2 0  9997,2 53588  53.2145 293.1957 0001493  64.5879 266.6672 15.08830826 11685,6917.908,95.438,540.806,538.741,0.0
53588.0,STARLINK-4691,PAYLOAD,2022-11-12 14:00:01,15.08891775,0.0001535,53.2141,290.2038,56.9182,297.5612,-0.0038058,-0.00060435,0.0,0 STARLINK-4691,1 53588U 22104A   22316.58334491 -.00060435  00000-0 -38058-2 0  9995,2 53588  53.2141 290.2038 0001535  56.9182 297.5612 15.08891775 11786,6917.722,95.434,540.649,538.525,0.0
53588.0,STARLINK-4691,PAYLOAD,2022-11-13 00:00:00,15.08869242,0.0001533,53.2143,288.3328,63.6463,35.3606,-0.0025813,-0.00041168,0.0,0 STARLINK-4691,1 53588U 22104A   22317.00001157 -.00041168  00000-0 -25813-2 0  9990,2 53588  53.2143 288.3328 0001533  63.6463  35.3606 15.08869242  1305,6917.791,95.436,540.717,538.596,0.0
53588.0,STARLINK-4691,PAYLOAD,2022-11-13 06:00:02,15.08837951,0.0001674,53.2142,287.2118,57.574,320.2094,-0.0015584,-0.00025003,0.0,0 STARLINK-4691,1 53588U 22104A   22317.25002315 -.00025003  00000-0 -15584-2 0  9998,2 53588  53.2142 287.2118 0001674  57.5740 320.2094 15.08837951 11888,6917.887,95.438,540.91,538.594,0.0
53588.0,STARLINK-4691,PAYLOAD,2022-11-13 14:00:01,15.08848032,0.0001618,53.2141,285.7144,57.8882,331.4121,-0.0039582,-0.00062748,0.0,0 STARLINK-4691,1 53588U 22104A   22317.58334491 -.00062748  00000-0 -39582-2 0  9998,2 53588  53.2141 285.7144 0001618  57.8882 331.4121 15.08848032  1300,6917.856,95.437,540.84,538.602,0.0
53588.0,STARLINK-4691,PAYLOAD,2022-11-13 22:00:00,15.08808054,0.0001652,53.2143,284.2173,65.55199999999999,335.3244,0.0021668,0.00034335,0.0,0 STARLINK-4691,1 53588U 22104A   22317.91667824  .00034335  00000-0  21668-2 0  9999,2 53588  53.2143 284.2173 0001652  65.5520 335.3244 15.08808054  1300,6917.978,95.44,540.986,538.7,0.0
53588.0,STARLINK-4691,PAYLOAD,2022-11-14 14:00:01,15.08852365,0.0001721999999999,53.2149,281.2257,59.9736,4.0519,-0.0011043,-0.00017826,0.0,0 STARLINK-4691,1 53588U 22104A   22318.58334491 -.00017826  00000-0 -11043-2 0  9998,2 53588  53.2149 281.2257 0001722  59.9736   4.0519 15.08852365 12086,6917.843000000003,95.437,540.899,538.516,0.0
53588.0,STARLINK-4691,PAYLOAD,2022-11-14 22:00:00,15.0885046,0.0001669,53.2146,279.7281,65.0943,10.535,-0.00074764,-0.00012171,0.0,0 STARLINK-4691,1 53588U 22104A   22318.91667824 -.00012171  00000-0 -74764-3 0  9992,2 53588  53.2146 279.7281 0001669  65.0943  10.5350 15.08850460  1302,6917.848000000001,95.437,540.868,538.559,0.0
53588.0,STARLINK-4691,PAYLOAD,2022-11-15 08:00:01,15.08827871,0.0001774,53.215,277.8609,56.2951,123.9123,0.0030848,0.00049133,0.0,0 STARLINK-4691,1 53588U 22104A   22319.33335648  .00049133  00000-0  30848-2 0  9995,2 53588  53.2150 277.8609 0001774  56.2951 123.9123 15.08827871 12194,6917.917,95.438,541.01,538.555,0.0
53588.0,STARLINK-4691,PAYLOAD,2022-11-15 14:00:01,15.08859541,0.0001617,53.2147,276.7359,58.9592,39.8674,-0.003209,-0.00051025,0.0,0 STARLINK-4691,1 53588U 22104A   22319.58334491 -.00051025  00000-0 -32090-2 0  9993,2 53588  53.2147 276.7359 0001617  58.9592  39.8674 15.08859541  1302,6917.821,95.436,540.804,538.567,0.0
53588.0,STARLINK-4691,PAYLOAD,2022-11-15 16:00:00,15.08827011,0.0001548,53.2147,276.3614,60.1189,131.6179,0.00056283,8.678e-05,0.0,0 STARLINK-4691,1 53588U 22104A   22319.66667824  .00008678  00000-0  56283-3 0  9996,2 53588  53.2147 276.3614 0001548  60.1189 131.6179 15.08827011 12245,6917.92,95.438,540.856,538.714,0.0
53588.0,STARLINK-4691,PAYLOAD,2022-11-15 22:00:00,15.08837604,0.0001567,53.2148,275.2389,63.5582,46.8616,0.001226,0.00019276,0.0,0 STARLINK-4691,1 53588U 22104A   22319.91667824  .00019276  00000-0  12260-2 0  9996,2 53588  53.2148 275.2389 0001567  63.5582  46.8616 15.08837604  1305,6917.888000000001,95.438,540.837,538.669,0.0
53588.0,STARLINK-4691,PAYLOAD,2022-11-16 14:00:01,15.08830277,0.0001581,53.2159,272.249,55.7399,77.9364,0.0008246,0.00012856,0.0,0 STARLINK-4691,1 53588U 22104A   22320.58335648  .00012856  00000-0  82460-3 0  9994,2 53588  53.2159 272.2490 0001581  55.7399  77.9364 15.08830277  1306,6917.91,95.438,540.869,538.681,0.0
53588.0,STARLINK-4691,PAYLOAD,2022-11-16 20:00:01,15.08849152,0.0001661,53.2164,271.1271,58.6586,353.6414,-0.00065859,-0.00010757,0.0,0 STARLINK-4691,1 53588U 22104A   22320.83334491 -.00010757  00000-0 -65859-3 0  9990,2 53588  53.2164 271.1271 0001661  58.6586 353.6414 15.08849152 12423,6917.852,95.437,540.866,538.568,0.0
53588.0,STARLINK-4691,PAYLOAD,2022-11-16 22:00:08,15.08858631,0.0001706,53.2168,270.7533,58.9161,86.7215,-0.0020449,-0.00032702,0.0,0 STARLINK-4691,1 53588U 22104A   22320.91675926 -.00032702  00000-0 -20449-2 0  9999,2 53588  53.2168 270.7533 0001706  58.9161  86.7215 15.08858631  1305,6917.823,95.436,540.869,538.508,0.0
53588.0,STARLINK-4691,PAYLOAD,2022-11-17 14:00:01,15.08850259,0.0001440999999999,53.2145,267.7571,58.5073,109.9087,-0.002196,-0.00035077,0.0,0 STARLINK-4691,1 53588U 22104A   22321.58334491 -.00035077  00000-0 -21960-2 0  9999,2 53588  53.2145 267.7571 0001441  58.5073 109.9087 15.08850259  1305,6917.849,95.437,540.711,538.717,0.0
53588.0,STARLINK-4691,PAYLOAD,2022-11-17 22:00:00,15.08832152,0.0001493,53.2147,266.2605,64.3828,115.6232,-0.00062967,-0.00010293,0.0,0 STARLINK-4691,1 53588U 22104A   22321.91667824 -.00010293  00000-0 -62967-3 0  9991,2 53588  53.2147 266.2605 0001493  64.3828 115.6232 15.08832152  1307,6917.904,95.438,540.802,538.737,0.0
53588.0,STARLINK-4691,PAYLOAD,2022-11-18 14:00:01,15.08837571,0.0001505,53.215,263.2676,62.2087,140.9612,0.00013971,1.936e-05,0.0,0 STARLINK-4691,1 53588U 22104A   22322.58334491  .00001936  00000-0  13971-3 0  9999,2 53588  53.2150 263.2676 0001505  62.2087 140.9612 15.08837571  1307,6917.888000000001,95.438,540.794,538.712,0.0
53588.0,STARLINK-4691,PAYLOAD,2022-11-18 22:00:00,15.08864159,0.0001523,53.2158,261.7713,66.3281,148.4274,-0.0013449999999999,-0.00021644,0.0,0 STARLINK-4691,1 53588U 22104A   22322.91667824 -.00021644  00000-0 -13450-2 0  9996,2 53588  53.2158 261.7713 0001523  66.3281 148.4274 15.08864159  1300,6917.807,95.436,540.725,538.618,0.0
53588.0,STARLINK-4691,PAYLOAD,2022-11-19 14:00:01,15.08844181,0.0001474,53.2157,258.7782,62.7472,175.2205,-2.5808e-05,-6.99e-06,0.0,0 STARLINK-4691,1 53588U 22104A   22323.58334491 -.00000699  00000-0 -25808-4 0  9990,2 53588  53.2157 258.7782 0001474  62.7472 175.2205 15.08844181  1303,6917.868,95.437,540.752,538.7130000000002,0.0
53588.0,STARLINK-4691,PAYLOAD,2022-11-19 22:00:00,15.08842504,0.0001626,53.2158,257.2821,67.1597,182.4014,-0.0009857,-0.00015942,0.0,0 STARLINK-4691,1 53588U 22104A   22323.91667824 -.00015942  00000-0 -98570-3 0  9998,2 53588  53.2158 257.2821 0001626  67.1597 182.4014 15.08842504  1303,6917.873000000001,95.437,540.863,538.613,0.0
53588.0,STARLINK-4691,PAYLOAD,2022-11-20 06:00:00,15.08809747,0.0001744,53.2157,255.787,59.2443,201.9119,0.0035985,0.00057401,0.0,0 STARLINK-4691,1 53588U 22104A   22324.25001157  .00057401  00000-0  35985-2 0  9991,2 53588  53.2157 255.7870 0001744  59.2443 201.9119 15.08809747 12938,6917.973000000001,95.439,541.044,538.631,0.0
